1 38746U 12044C   18226.68307365 +.00002405 +00000-0 +15346-3 0  9999
2 38746 049.6982 303.0355 2420533 252.8039 079.5495 10.47318747216207
1 38746U 12044C   18227.63736678 +.00002575 +00000-0 +16363-3 0  9996
2 38746 049.6981 300.8081 2420552 254.6836 077.5727 10.47323883216307
1 38746U 12044C   18228.20994375  .00003119  00000-0  19648-3 0  9994
2 38746  49.6981 299.4714 2420546 255.8115  76.4020 10.47328482227013
1 38746U 12044C   18228.59166276 +.00003106 +00000-0 +19567-3 0  9993
2 38746 049.6981 298.5807 2420544 256.5635 075.6278 10.47330529216401
1 38746U 12044C   18229.64139211 +.00003168 +00000-0 +19942-3 0  9994
2 38746 049.6983 296.1306 2420512 258.6314 073.5253 10.47337057216518
1 38746U 12044C   18230.21397275  .00003010  00000-0  18985-3 0  9997
2 38746  49.6984 294.7941 2420491 259.7593  72.3944 10.47340572227225
1 38746U 12044C   18230.50026378 +.00002879 +00000-0 +18196-3 0  9998
2 38746 049.6984 294.1264 2420478 260.3233 071.8331 10.47342132216609
1 38746U 12044C   18231.54999943 +.00002673 +00000-0 +16954-3 0  9992
2 38746 049.6984 291.6764 2420410 262.3903 069.7994 10.47347901216710
1 38746U 12044C   18232.50430804  .00002734  00000-0  17331-3 0  9993
2 38746  49.6986 289.4492 2420368 264.2693  67.9818 10.47353249227465
1 38746U 12044C   18232.59973903 +.00002776 +00000-0 +17586-3 0  9992
2 38746 049.6985 289.2265 2420361 264.4572 067.8016 10.47353888216827
1 38746U 12044C   18232.98146325 +.00002854 +00000-0 +18059-3 0  9998
2 38746 049.6986 288.3355 2420339 265.2087 067.0840 10.47356207216862
1 38746U 12044C   18234.60379625  .00002677  00000-0  16988-3 0  9992
2 38746  49.6982 284.5496 2420283 268.4021  64.0855 10.47364863227685
1 38746U 12044C   18235.55811426 +.00002288 +00000-0 +14636-3 0  9993
2 38746 049.6979 282.3225 2420268 270.2806 062.3591 10.47368752217130
1 38746U 12044C   18235.65354617 +.00002305 +00000-0 +14738-3 0  9991
2 38746 049.6978 282.0998 2420263 270.4684 062.1881 10.47369296217149
1 38746U 12044C   18236.60786798  .00002217  00000-0  14204-3 0  9996
2 38746  49.6973 279.8725 2420257 272.3471  60.4912 10.47373366227896
1 38746U 12044C   18236.89416482 +.00002452 +00000-0 +15626-3 0  9997
2 38746 049.6972 279.2041 2420252 272.9110 059.9872 10.47375312217273
1 38746U 12044C   18237.27589475 +.00002260 +00000-0 +14459-3 0  9993
2 38746 049.6970 278.3131 2420255 273.6626 059.3189 10.47376541217319
1 38746U 12044C   18237.84848999 +.00002496 +00000-0 +15886-3 0  9991
2 38746 049.6967 276.9767 2420259 274.7901 058.3241 10.47379856217372
1 38746U 12044C   18238.51651600 +.00004644 +00000-0 +28880-3 0  9992
2 38746 049.6964 275.4178 2420228 276.1055 057.1755 10.47389632217449
1 38746U 12044C   18238.61194876  .00004972  00000-0  30856-3 0  9990
2 38746  49.6962 275.1952 2420233 276.2933  57.0125 10.47390266228106
1 38746U 12044C   18238.89824513 +.00005193 +00000-0 +32192-3 0  9999
2 38746 049.6962 274.5265 2420220 276.8575 056.5244 10.47393421217481
1 38746U 12044C   18239.37540577 +.00004542 +00000-0 +28246-3 0  9990
2 38746 049.6958 273.4129 2420235 277.7972 055.7159 10.47397190217539
1 38746U 12044C   18239.85256521 +.00003901 +00000-0 +24364-3 0  9991
2 38746 049.6956 272.2991 2420229 278.7373 054.9136 10.47401832217580
1 38746U 12044C   18240.52058790 +.00004168 +00000-0 +25971-3 0  9996
2 38746 049.6955 270.7394 2420219 280.0536 053.8003 10.47408837217656
1 38746U 12044C   18241.18861069  .00003295  00000-0  20695-3 0  9998
2 38746  49.6953 269.1799 2420208 281.3699  52.6987 10.47412780228378
1 38746U 12044C   18241.57033848 +.00002996 +00000-0 +18891-3 0  9999
2 38746 049.6952 268.2885 2420198 282.1225 052.0739 10.47414683217769
1 38746U 12044C   18242.52465832 +.00002750 +00000-0 +17413-3 0  9994
2 38746 049.6951 266.0608 2420158 284.0033 050.5289 10.47420209217866
1 38746U 12044C   18243.19268293  .00002732  00000-0  17313-3 0  9999
2 38746  49.6951 264.5009 2420105 285.3200  49.4609 10.47423972228580
1 38746U 12044C   18243.38354729 +.00002711 +00000-0 +17186-3 0  9995
2 38746 049.6949 264.0555 2420093 285.6962 049.1577 10.47424950217959
1 38746U 12044C   18244.43330177 +.00002645 +00000-0 +16800-3 0  9991
2 38746 049.6947 261.6046 2420023 287.7654 047.5055 10.47430496218067
1 38746U 12044C   18245.19676029  .00002677  00000-0  17006-3 0  9998
2 38746  49.6945 259.8221 2419964 289.2699  46.3201 10.47434626228797
1 38746U 12044C   18245.48305732 +.00002781 +00000-0 +17639-3 0  9998
2 38746 049.6944 259.1540 2419932 289.8341 045.8791 10.47436422218173
1 38746U 12044C   18246.91454350 +.00002852 +00000-0 +18093-3 0  9992
2 38746 049.6938 255.8119 2419805 292.6550 043.7008 10.47444298218329
1 38746U 12044C   18247.20084069  .00002886  00000-0  18306-3 0  9995
2 38746  49.6936 255.1436 2419784 293.2190  43.2705 10.47446011229006
1 38746U 12044C   18247.96429955 +.00003136 +00000-0 +19834-3 0  9991
2 38746 049.6931 253.3612 2419724 294.7231 042.1313 10.47451162218434
1 38746U 12044C   18249.39578258  .00003431  00000-0  21645-3 0  9992
2 38746  49.6920 250.0194 2419624 297.5429  40.0273 10.47461416229235
1 38746U 12044C   18249.96837453 +.00003402 +00000-0 +21469-3 0  9992
2 38746 049.6917 248.6819 2419600 298.6712 039.1965 10.47465489218643
1 38746U 12044C   18250.44553406 +.00003491 +00000-0 +22011-3 0  9992
2 38746 049.6913 247.5680 2419586 299.6112 038.5090 10.47469239218695
1 38746U 12044C   18250.92269345 +.00003293 +00000-0 +20810-3 0  9996
2 38746 049.6911 246.4532 2419574 300.5518 037.8253 10.47472064218745
1 38746U 12044C   18251.39985222  .00003236  00000-0  20464-3 0  9999
2 38746  49.6907 245.3393 2419567 301.4921  37.1459 10.47475470229447
1 38746U 12044C   18251.87701101 +.00002842 +00000-0 +18078-3 0  9994
2 38746 049.6906 244.2245 2419559 302.4329 036.4703 10.47477694218840
1 38746U 12044C   18252.83132730 +.00002799 +00000-0 +17821-3 0  9993
2 38746 049.6903 241.9957 2419528 304.3145 035.1310 10.47483793218942
1 38746U 12044C   18253.40391684  .00002676  00000-0  17083-3 0  9996
2 38746  49.6901 240.6586 2419493 305.4436  34.3349 10.47486910229657
1 38746U 12044C   18253.88107371 +.00002901 +00000-0 +18449-3 0  9994
2 38746 049.6902 239.5441 2419469 306.3844 033.6756 10.47490612219052
1 38746U 12044C   18254.83538436 +.00004482 +00000-0 +28063-3 0  9999
2 38746 049.6901 237.3150 2419390 308.2669 032.3677 10.47501231219152
1 38746U 12044C   18255.12167671  .00004749  00000-0  29686-3 0  9999
2 38746  49.6900 236.6466 2419372 308.8315  31.9781 10.47504273229833
1 38746U 12044C   18255.40796831 +.00004662 +00000-0 +29167-3 0  9994
2 38746 049.6900 235.9778 2419332 309.3966 031.5896 10.47507212219215
1 38746U 12044C   18255.88512007 +.00004413 +00000-0 +27672-3 0  9990
2 38746 049.6899 234.8635 2419280 310.3379 030.9451 10.47511963219267
1 38746U 12044C   18256.36227049 +.00004341 +00000-0 +27249-3 0  9993
2 38746 049.6898 233.7491 2419220 311.2792 030.3041 10.47516777219310
1 38746U 12044C   18256.93484930 +.00004598 +00000-0 +28829-3 0  9999
2 38746 049.6896 232.4120 2419146 312.4084 029.5394 10.47522834219375
1 38746U 12044C   18257.12570817  .00004837  00000-0  30293-3 0  9995
2 38746  49.6895 231.9663 2419121 312.7849  29.2855 10.47525257230043
1 38746U 12044C   18257.31656686 +.00005686 +00000-0 +35468-3 0  9997
2 38746 049.6894 231.5205 2419086 313.1616 029.0320 10.47528600219415
1 38746U 12044C   18257.88914195 +.00004695 +00000-0 +29460-3 0  9995
2 38746 049.6892 230.1833 2419017 314.2906 028.2750 10.47533210219470
1 38746U 12044C   18258.36628601 +.00005312 +00000-0 +33227-3 0  9996
2 38746 049.6889 229.0690 2418958 315.2317 027.6473 10.47539312219524
1 38746U 12044C   18258.93885802 +.00004531 +00000-0 +28489-3 0  9993
2 38746 049.6886 227.7318 2418900 316.3606 026.8984 10.47543409219589
1 38746U 12044C   18259.12971500  .00004578  00000-0  28784-3 0  9995
2 38746  49.6885 227.2860 2418878 316.7370  26.6496 10.47545051230259
1 38746U 12044C   18259.32057161 +.00004690 +00000-0 +29467-3 0  9999
2 38746 049.6881 226.8401 2418861 317.1135 026.4011 10.47546982219620
1 38746U 12044C   18259.89314115 +.00004044 +00000-0 +25547-3 0  9994
2 38746 049.6878 225.5029 2418801 318.2423 025.6591 10.47550685219689
1 38746U 12044C   18260.27485295 +.00004215 +00000-0 +26607-3 0  9994
2 38746 049.6874 224.6112 2418745 318.9950 025.1666 10.47554292219728
1 38746U 12044C   18260.94284666 +.00004639 +00000-0 +29211-3 0  9991
2 38746 049.6869 223.0508 2418678 320.3121 024.3088 10.47560878219799
1 38746U 12044C   18261.13370131  .00004873  00000-0  30644-3 0  9998
2 38746  49.6868 222.6049 2418662 320.6884  24.0646 10.47563079230465
1 38746U 12044C   18261.89711737 +.00004601 +00000-0 +28996-3 0  9998
2 38746 049.6861 220.8214 2418604 322.1934 023.0921 10.47570638219899
1 38746U 12044C   18262.37425001 +.00005312 +00000-0 +33352-3 0  9990
2 38746 049.6857 219.7067 2418559 323.1341 022.4875 10.47577012219949
1 38746U 12044C   18262.94680755 +.00004661 +00000-0 +29380-3 0  9994
2 38746 049.6854 218.3691 2418520 324.2629 021.7652 10.47581999220006
1 38746U 12044C   18263.13765960  .00004770  00000-0  30047-3 0  9991
2 38746  49.6854 217.9233 2418511 324.6393  21.5251 10.47584020230670
1 38746U 12044C   18263.32851137 +.00004617 +00000-0 +29117-3 0  9990
2 38746 049.6853 217.4773 2418502 325.0157 021.2853 10.47585725220044
1 38746U 12044C   18264.85531915 +.00004129 +00000-0 +26151-3 0  9991
2 38746 049.6850 213.9102 2418422 328.0267 019.3801 10.47598237220205
1 38746U 12044C   18265.23701942 +.00005507 +00000-0 +34579-3 0  9997
2 38746 049.6850 213.0184 2418395 328.7800 018.9068 10.47603213220240
1 38746U 12044C   18265.90499154 +.00004745 +00000-0 +29931-3 0  9999
2 38746 049.6849 211.4577 2418357 330.0979 018.0820 10.47608590220315
1 38746U 12044C   18266.57295946 +.00006351 +00000-0 +39763-3 0  9995
2 38746 049.6849 209.8971 2418282 331.4158 017.2610 10.47618483220382
1 38746U 12044C   18266.85923011 +.00006518 +00000-0 +40794-3 0  9998
2 38746 049.6849 209.2282 2418249 331.9808 016.9102 10.47622197220414
